STARLINK-1510
1 15784C 20038BG  21326.15449854  .00003867  00000-0  25909-3 0  3261
2 15784  53.0553  38.0579 0001083  71.3379 179.2631 15.06398966    18
